start=new Date('2023-02-01T00:00:00.000Z').valueOf();
sats=[{"TIME_SYSTEM":"UTC","MEAN_ANOMALY":"270.1438","REF_FRAME":"TEME","NORAD_CAT_ID":"48487","SEMIMAJOR_AXIS":"6925.371","APOAPSIS":"548.160","DECAY_DATE":null,"SITE":"AFETR","ECCENTRICITY":"0.00013340","INCLINATION":"53.0541","COUNTRY_CODE":"US","ARG_OF_PERICENTER":"89.9704","RA_OF_ASC_NODE":"246.9254","CENTER_NAME":"EARTH","LAUNCH_DATE":"2021-05-09","OBJECT_ID":"2021-040BM","OBJECT_TYPE":"PAYLOAD","MEAN_MOTION_DOT":"0.00003013","EPHEMERIS_TYPE":"0","PERIOD":"95.593","OBJECT_NAME":"STARLINK-2494","BSTAR":"0.00022111000000","MEAN_MOTION_DDOT":"0.0000000000000","MEAN_MOTION":"15.06392547","FILE":"3766747","EPOCH":"2023-01-31T21:28:16.754304","MEAN_ELEMENT_THEORY":"SGP4","GP_ID":"224124939","TLE_LINE1":"1 48487U 21040BM  23031.89463836  .00003013  00000-0  22111-3 0  9991","PERIAPSIS":"546.313","REV_AT_EPOCH":"9561","TLE_LINE2":"2 48487  53.0541 246.9254 0001334  89.9704 270.1438 15.06392547 95619","CLASSIFICATION_TYPE":"U","RCS_SIZE":"LARGE","ELEMENT_SET_NO":"999"},{"EPOCH":"2023-01-31T09:46:18.393312","FILE":"3766475","GP_ID":"224095092","MEAN_ELEMENT_THEORY":"SGP4","TLE_LINE2":"2 48553  53.0557 179.1161 0001147  90.7131 269.3990 15.06405953 94393","REV_AT_EPOCH":"9439","PERIAPSIS":"546.401","TLE_LINE1":"1 48553U 21041A   23031.40715733  .00001813  00000-0  14053-3 0  9991","ELEMENT_SET_NO":"999","RCS_SIZE":"LARGE","CLASSIFICATION_TYPE":"U","PERIOD":"95.592","EPHEMERIS_TYPE":"0","MEAN_MOTION_DOT":"0.00001813","BSTAR":"0.00014053000000","OBJECT_NAME":"STARLINK-2063","MEAN_MOTION":"15.06405953","MEAN_MOTION_DDOT":"0.0000000000000","INCLINATION":"53.0557","ECCENTRICITY":"0.00011470","RA_OF_ASC_NODE":"179.1161","ARG_OF_PERICENTER":"90.7131","COUNTRY_CODE":"US","OBJECT_ID":"2021-041A","LAUNCH_DATE":"2021-05-15","CENTER_NAME":"EARTH","OBJECT_TYPE":"PAYLOAD","MEAN_ANOMALY":"269.3990","TIME_SYSTEM":"UTC","SEMIMAJOR_AXIS":"6925.330","REF_FRAME":"TEME","NORAD_CAT_ID":"48553","APOAPSIS":"547.990","SITE":"AFETR","DECAY_DATE":null},{"EPHEMERIS_TYPE":"0","PERIOD":"95.592","MEAN_MOTION_DOT":"0.00000219","OBJECT_NAME":"STARLINK-2139","BSTAR":"0.00003356800000","MEAN_MOTION_DDOT":"0.0000000000000","MEAN_MOTION":"15.06397735","EPOCH":"2023-01-31T19:30:10.279872","FILE":"3766747","GP_ID":"224125699","MEAN_ELEMENT_THEORY":"SGP4","REV_AT_EPOCH":"9445","TLE_LINE2":"2 48554  53.0543 177.3019 0001126  94.4264 265.6853 15.06397735 94458","TLE_LINE1":"1 48554U 21041B   23031.81261898  .00000219  00000-0  33568-4 0  9997","PERIAPSIS":"546.441","RCS_SIZE":"LARGE","ELEMENT_SET_NO":"999","CLASSIFICATION_TYPE":"U","MEAN_ANOMALY":"265.6853","TIME_SYSTEM":"UTC","SEMIMAJOR_AXIS":"6925.355","REF_FRAME":"TEME","NORAD_CAT_ID":"48554","APOAPSIS":"548.000","SITE":"AFETR","DECAY_DATE":null,"ECCENTRICITY":"0.00011260","INCLINATION":"53.0543","RA_OF_ASC_NODE":"177.3019","COUNTRY_CODE":"US","ARG_OF_PERICENTER":"94.4264","LAUNCH_DATE":"2021-05-15","OBJECT_ID":"2021-041B","CENTER_NAME":"EARTH","OBJECT_TYPE":"PAYLOAD"},{"FILE":"3766747","EPOCH":"2023-01-31T18:35:47.332896","MEAN_ELEMENT_THEORY":"SGP4","GP_ID":"224124447","TLE_LINE1":"1 48555U 21041C   23031.77485339 -.00000368  00000-0 -58274-5 0  9990","PERIAPSIS":"546.700","REV_AT_EPOCH":"9430","TLE_LINE2":"2 48555  53.0553 187.4771 0000774 104.8889 255.2185 15.06392685 94300","CLASSIFICATION_TYPE":"U","RCS_SIZE":"LARGE","ELEMENT_SET_NO":"999","MEAN_MOTION_DOT":"-0.00000368","EPHEMERIS_TYPE":"0","PERIOD":"95.593","OBJECT_NAME":"STARLINK-2145","BSTAR":"-0.00000582740000","MEAN_MOTION_DDOT":"0.0000000000000","MEAN_MOTION":"15.06392685","ECCENTRICITY":"0.00007740","INCLINATION":"53.0553","COUNTRY_CODE":"US","ARG_OF_PERICENTER":"104.8889","RA_OF_ASC_NODE":"187.4771","CENTER_NAME":"EARTH","LAUNCH_DATE":"2021-05-15","OBJECT_ID":"2021-041C","OBJECT_TYPE":"PAYLOAD","TIME_SYSTEM":"UTC","MEAN_ANOMALY":"255.2185","NORAD_CAT_ID":"48555","REF_FRAME":"TEME","SEMIMAJOR_AXIS":"6925.371","APOAPSIS":"547.772","DECAY_DATE":null,"SITE":"AFETR"},{"APOAPSIS":"547.986","DECAY_DATE":null,"SITE":"AFETR","TIME_SYSTEM":"UTC","MEAN_ANOMALY":"274.9165","NORAD_CAT_ID":"48556","REF_FRAME":"TEME","SEMIMAJOR_AXIS":"6925.360","CENTER_NAME":"EARTH","OBJECT_ID":"2021-041D","LAUNCH_DATE":"2021-05-15","OBJECT_TYPE":"PAYLOAD","INCLINATION":"53.0536","ECCENTRICITY":"0.00010980","ARG_OF_PERICENTER":"85.1950","COUNTRY_CODE":"US","RA_OF_ASC_NODE":"188.4180","MEAN_MOTION":"15.06396227","MEAN_MOTION_DDOT":"0.0000000000000","MEAN_MOTION_DOT":"0.00001088","PERIOD":"95.592","EPHEMERIS_TYPE":"0","BSTAR":"0.00009192600000","OBJECT_NAME":"STARLINK-2151","PERIAPSIS":"546.465","TLE_LINE1":"1 48556U 21041D   23031.56474314  .00001088  00000-0  91926-4 0  9997","TLE_LINE2":"2 48556  53.0536 188.4180 0001098  85.1950 274.9165 15.06396227 94275","REV_AT_EPOCH":"9427","CLASSIFICATION_TYPE":"U","ELEMENT_SET_NO":"999","RCS_SIZE":"LARGE","FILE":"3766475","EPOCH":"2023-01-31T13:33:13.807296","MEAN_ELEMENT_THEORY":"SGP4","GP_ID":"224093842"},{"OBJECT_TYPE":"PAYLOAD","CENTER_NAME":"EARTH","LAUNCH_DATE":"2021-05-15","OBJECT_ID":"2021-041E","COUNTRY_CODE":"US","ARG_OF_PERICENTER":"90.5719","RA_OF_ASC_NODE":"177.1944","ECCENTRICITY":"0.00012290","INCLINATION":"53.0565","DECAY_DATE":null,"SITE":"AFETR","APOAPSIS":"548.064","REF_FRAME":"TEME","NORAD_CAT_ID":"48557","SEMIMAJOR_AXIS":"6925.348","TIME_SYSTEM":"UTC","MEAN_ANOMALY":"269.5410","CLASSIFICATION_TYPE":"U","RCS_SIZE":"LARGE","ELEMENT_SET_NO":"999","TLE_LINE1":"1 48557U 21041E   23031.83473645  .00000431  00000-0  47798-4 0  9993","PERIAPSIS":"546.362","REV_AT_EPOCH":"9445","TLE_LINE2":"2 48557  53.0565 177.1944 0001229  90.5719 269.5410 15.06400220 94452","MEAN_ELEMENT_THEORY":"SGP4","GP_ID":"224125449","FILE":"3766747","EPOCH":"2023-01-31T20:02:01.229280","MEAN_MOTION_DDOT":"0.0000000000000","MEAN_MOTION":"15.06400220","OBJECT_NAME":"STARLINK-2155","BSTAR":"0.00004779800000","MEAN_MOTION_DOT":"0.00000431","EPHEMERIS_TYPE":"0","PERIOD":"95.592"},{"MEAN_ELEMENT_THEORY":"SGP4","GP_ID":"224101979","FILE":"3766654","EPOCH":"2023-01-31T11:59:01.091616","CLASSIFICATION_TYPE":"U","RCS_SIZE":"LARGE","ELEMENT_SET_NO":"999","TLE_LINE1":"1 48558U 21041F   23031.49931819  .00001178  00000-0  97955-4 0  9997","PERIAPSIS":"546.410","REV_AT_EPOCH":"9480","TLE_LINE2":"2 48558  53.0520 178.7116 0001168 101.3045 258.8075 15.06398192 94808","OBJECT_NAME":"STARLINK-2166","BSTAR":"0.00009795500000","MEAN_MOTION_DOT":"0.00001178","EPHEMERIS_TYPE":"0","PERIOD":"95.592","MEAN_MOTION_DDOT":"0.0000000000000","MEAN_MOTION":"15.06398192","COUNTRY_CODE":"US","ARG_OF_PERICENTER":"101.3045","RA_OF_ASC_NODE":"178.7116","ECCENTRICITY":"0.00011680","INCLINATION":"53.0520","OBJECT_TYPE":"PAYLOAD","CENTER_NAME":"EARTH","LAUNCH_DATE":"2021-05-15","OBJECT_ID":"2021-041F","NORAD_CAT_ID":"48558","REF_FRAME":"TEME","SEMIMAJOR_AXIS":"6925.354","TIME_SYSTEM":"UTC","MEAN_ANOMALY":"258.8075","DECAY_DATE":null,"SITE":"AFETR","APOAPSIS":"548.028"},{"RCS_SIZE":"LARGE","ELEMENT_SET_NO":"999","CLASSIFICATION_TYPE":"U","REV_AT_EPOCH":"9483","TLE_LINE2":"2 48559  53.0531 179.1508 0000977  97.3433 262.7667 15.06393130 94834","TLE_LINE1":"1 48559U 21041G   23031.40254059  .00000741  00000-0  68663-4 0  9992","PERIAPSIS":"546.558","GP_ID":"224101478","MEAN_ELEMENT_THEORY":"SGP4","EPOCH":"2023-01-31T09:39:39.506976","FILE":"3766654","MEAN_MOTION_DDOT":"0.0000000000000","MEAN_MOTION":"15.06393130","OBJECT_NAME":"STARLINK-2167","BSTAR":"0.00006866300000","EPHEMERIS_TYPE":"0","PERIOD":"95.593","MEAN_MOTION_DOT":"0.00000741","OBJECT_TYPE":"PAYLOAD","LAUNCH_DATE":"2021-05-15","OBJECT_ID":"2021-041G","CENTER_NAME":"EARTH","RA_OF_ASC_NODE":"179.1508","COUNTRY_CODE":"US","ARG_OF_PERICENTER":"97.3433","ECCENTRICITY":"0.00009770","INCLINATION":"53.0531","SITE":"AFETR","DECAY_DATE":null,"APOAPSIS":"547.911","SEMIMAJOR_AXIS":"6925.370","REF_FRAME":"TEME","NORAD_CAT_ID":"48559","MEAN_ANOMALY":"262.7667","TIME_SYSTEM":"UTC"},{"ARG_OF_PERICENTER":"88.0333","COUNTRY_CODE":"US","RA_OF_ASC_NODE":"149.0545","INCLINATION":"53.0540","ECCENTRICITY":"0.00012230","OBJECT_TYPE":"PAYLOAD","CENTER_NAME":"EARTH","OBJECT_ID":"2021-041J","LAUNCH_DATE":"2021-05-15","REF_FRAME":"TEME","NORAD_CAT_ID":"48561","SEMIMAJOR_AXIS":"6925.373","TIME_SYSTEM":"UTC","MEAN_ANOMALY":"272.0796","DECAY_DATE":null,"SITE":"AFETR","APOAPSIS":"548.085","MEAN_ELEMENT_THEORY":"SGP4","GP_ID":"224094343","FILE":"3766475","EPOCH":"2023-01-31T11:36:30.727872","CLASSIFICATION_TYPE":"U","ELEMENT_SET_NO":"999","RCS_SIZE":"LARGE","PERIAPSIS":"546.391","TLE_LINE1":"1 48561U 21041J   23031.48368898  .00000690  00000-0  65208-4 0  9995","TLE_LINE2":"2 48561  53.0540 149.0545 0001223  88.0333 272.0796 15.06391893 94825","REV_AT_EPOCH":"9482","BSTAR":"0.00006520800000","OBJECT_NAME":"STARLINK-2186","MEAN_MOTION_DOT":"0.00000690","PERIOD":"95.593","EPHEMERIS_TYPE":"0","MEAN_MOTION":"15.06391893","MEAN_MOTION_DDOT":"0.0000000000000"},{"MEAN_MOTION":"15.06395280","MEAN_MOTION_DDOT":"0.0000000000000","MEAN_MOTION_DOT":"0.00002478","PERIOD":"95.592","EPHEMERIS_TYPE":"0","BSTAR":"0.00018521000000","OBJECT_NAME":"STARLINK-2187","PERIAPSIS":"546.425","TLE_LINE1":"1 48562U 21041K   23031.41085784  .00002478  00000-0  18521-3 0  9990","TLE_LINE2":"2 48562  53.0553 179.1028 0001160  98.9689 261.1431 15.06395280 94395","REV_AT_EPOCH":"9439","CLASSIFICATION_TYPE":"U","ELEMENT_SET_NO":"999","RCS_SIZE":"LARGE","FILE":"3766475","EPOCH":"2023-01-31T09:51:38.117376","MEAN_ELEMENT_THEORY":"SGP4","GP_ID":"224095093","APOAPSIS":"548.031","DECAY_DATE":null,"SITE":"AFETR","TIME_SYSTEM":"UTC","MEAN_ANOMALY":"261.1431","REF_FRAME":"TEME","NORAD_CAT_ID":"48562","SEMIMAJOR_AXIS":"6925.363","CENTER_NAME":"EARTH","OBJECT_ID":"2021-041K","LAUNCH_DATE":"2021-05-15","OBJECT_TYPE":"PAYLOAD","INCLINATION":"53.0553","ECCENTRICITY":"0.00011600","ARG_OF_PERICENTER":"98.9689","COUNTRY_CODE":"US","RA_OF_ASC_NODE":"179.1028"}];
